NORAD_CAT_ID,OBJECT_NAME,OBJECT_TYPE,EPOCH,MEAN_MOTION,ECCENTRICITY,INCLINATION,RA_OF_ASC_NODE,ARG_OF_PERICENTER,MEAN_ANOMALY,BSTAR,MEAN_MOTION_DOT,MEAN_MOTION_DDOT,TLE_LINE0,TLE_LINE1,TLE_LINE2,SEMIMAJOR_AXIS,PERIOD,APOGEE,PERIGEE,DECAYED
50199.0,STARLINK-3270,PAYLOAD,2022-11-27 02:40:42,15.08851121,0.0002901,53.218,219.7461,34.9069,325.2113,8.483299999999999e-05,1.062e-05,0.0,0 STARLINK-3270,1 50199U 21125AV  22331.11160491  .00001062  00000-0  84833-4 0  9998,2 50199  53.2180 219.7461 0002901  34.9069 325.2113 15.08851121 55782,6917.846,95.437,541.7180000000002,537.705,0.0
50199.0,STARLINK-3270,PAYLOAD,2022-11-27 23:20:45,15.08826142,0.0002977,53.2181,215.8809,35.632,324.487,-5.3988e-05,-1.147e-05,0.0,0 STARLINK-3270,1 50199U 21125AV  22331.97274676 -.00001147  00000-0 -53988-4 0  9996,2 50199  53.2181 215.8809 0002977  35.6320 324.4870 15.08826142 55435,6917.9230000000025,95.438,541.847,537.7280000000002,0.0
50199.0,STARLINK-3270,PAYLOAD,2022-11-28 08:53:03,15.08833121,0.0003071,53.2183,214.0968,36.4657,323.6544,-6.903600000000001e-05,-1.387e-05,0.0,0 STARLINK-3270,1 50199U 21125AV  22332.37018517 -.00001387  00000-0 -69036-4 0  9998,2 50199  53.2183 214.0968 0003071  36.4657 323.6544 15.08833121 55492,6917.901,95.438,541.891,537.6419999999998,0.0
50199.0,STARLINK-3270,PAYLOAD,2022-11-28 18:25:22,15.088378400000002,0.0002961,53.2176,212.3123,33.1891,326.9286,1.4896e-05,-5.2e-07,0.0,0 STARLINK-3270,1 50199U 21125AV  22332.76761990 -.00000052  00000-0  14896-4 0  9992,2 50199  53.2176 212.3123 0002961  33.1891 326.9286 15.08837840 55557,6917.887,95.438,541.8,537.7040000000002,0.0
50199.0,STARLINK-3270,PAYLOAD,2022-11-29 08:43:50,15.08843412,0.0002962,53.2175,209.6365,34.2646,325.8537,5.7716e-05,6.3e-06,0.0,0 STARLINK-3270,1 50199U 21125AV  22333.36377663  .00000630  00000-0  57716-4 0  9998,2 50199  53.2175 209.6365 0002962  34.2646 325.8537 15.08843412 56127,6917.87,95.437,541.784,537.686,0.0
50199.0,STARLINK-3270,PAYLOAD,2022-11-29 18:16:09,15.08838814,0.0002924,53.2161,207.8527,33.872,326.2458,0.00022013,3.217e-05,0.0,0 STARLINK-3270,1 50199U 21125AV  22333.76122187  .00003217  00000-0  22013-3 0  9996,2 50199  53.2161 207.8527 0002924  33.8720 326.2458 15.08838814 56181,6917.884,95.438,541.7719999999998,537.726,0.0
50199.0,STARLINK-3270,PAYLOAD,2022-11-30 00:37:42,15.08828991,0.0002533,53.2148,206.659,29.448,330.6655,3.366e-05,2.47e-06,0.0,0 STARLINK-3270,1 50199U 21125AV  22334.02618644  .00000247  00000-0  33660-4 0  9995,2 50199  53.2148 206.6590 0002533  29.4480 330.6655 15.08828991 55747,6917.9140000000025,95.438,541.531,538.0269999999998,0.0
50199.0,STARLINK-3270,PAYLOAD,2022-11-30 08:34:39,15.08819846,0.0003017,53.2175,205.1777,35.4052,324.714,5.1055e-05,5.24e-06,0.0,0 STARLINK-3270,1 50199U 21125AV  22334.35740054  .00000524  00000-0  51055-4 0  9998,2 50199  53.2175 205.1777 0003017  35.4052 324.7140 15.08819846 55795,6917.941999999999,95.439,541.894,537.72,0.0
50199.0,STARLINK-3270,PAYLOAD,2022-11-30 18:06:57,15.08830166,0.0002217,53.2176,203.3873,17.0222,343.0844,0.00020526,2.979e-05,0.0,0 STARLINK-3270,1 50199U 21125AV  22334.75482814  .00002979  00000-0  20526-3 0  9993,2 50199  53.2176 203.3873 0002217  17.0222 343.0844 15.08830166 55859,6917.91,95.438,541.309,538.242,0.0
50199.0,STARLINK-3270,PAYLOAD,2022-12-01 03:39:15,15.08838361,0.0003502,53.2156,201.6095,33.5089,326.6124,4.3567e-05,4.05e-06,0.0,0 STARLINK-3270,1 50199U 21125AV  22335.15226767  .00000405  00000-0  43567-4 0  9994,2 50199  53.2156 201.6095 0003502  33.5089 326.6124 15.08838361 55916,6917.885,95.438,542.173,537.328,0.0
50199.0,STARLINK-3270,PAYLOAD,2022-12-01 21:08:30,15.08838758,0.0002975,53.2162,198.3372,35.3427,324.7762,0.00014183,1.969e-05,0.0,0 STARLINK-3270,1 50199U 21125AV  22335.88090833  .00001969  00000-0  14183-3 0  9994,2 50199  53.2162 198.3372 0002975  35.3427 324.7762 15.08838758 56505,6917.884,95.438,541.807,537.691,0.0
50199.0,STARLINK-3270,PAYLOAD,2022-12-02 08:16:12,15.08844422,0.0003044,53.2165,196.2555,36.6147,323.5052,0.00028406,4.236e-05,0.0,0 STARLINK-3270,1 50199U 21125AV  22336.34458732  .00004236  00000-0  28406-3 0  9995,2 50199  53.2165 196.2555 0003044  36.6147 323.5052 15.08844422 56097,6917.8669999999975,95.437,541.8380000000002,537.626,0.0
50199.0,STARLINK-3270,PAYLOAD,2022-12-02 17:48:31,15.08841801,0.0003041,53.2165,194.4716,39.01,321.1111,3.2568000000000004e-05,2.3e-06,0.0,0 STARLINK-3270,1 50199U 21125AV  22336.74202793  .00000230  00000-0  32568-4 0  9998,2 50199  53.2165 194.4716 0003041  39.0100 321.1111 15.08841801 56637,6917.875,95.437,541.844,537.636,0.0
50199.0,STARLINK-3270,PAYLOAD,2022-12-03 01:45:27,15.08838443,0.0003017,53.2164,192.9847,38.9686,321.1523,-2.6403e-05,-7.09e-06,0.0,0 STARLINK-3270,1 50199U 21125AV  22337.07323014 -.00000709  00000-0 -26403-4 0  9999,2 50199  53.2164 192.9847 0003017  38.9686 321.1523 15.08838443 56202,6917.885,95.438,541.837,537.663,0.0
50199.0,STARLINK-3270,PAYLOAD,2022-12-03 08:06:59,15.08841504,0.0003019,53.2164,191.7952,39.2405,320.8806,6.0292999999999975e-06,-1.93e-06,0.0,0 STARLINK-3270,1 50199U 21125AV  22337.33818900 -.00000193  00000-0  60293-5 0  9993,2 50199  53.2164 191.7952 0003019  39.2405 320.8806 15.08841504 56720,6917.876,95.437,541.8290000000002,537.6519999999998,0.0
50199.0,STARLINK-3270,PAYLOAD,2022-12-03 20:50:04,15.08843357,0.0003065,53.2164,189.4163,39.754,320.3677,0.00011137,1.484e-05,0.0,0 STARLINK-3270,1 50199U 21125AV  22337.86810890  .00001484  00000-0  11137-3 0  9995,2 50199  53.2164 189.4163 0003065  39.7540 320.3677 15.08843357 56802,6917.87,95.437,541.855,537.615,0.0
50199.0,STARLINK-3270,PAYLOAD,2022-12-04 00:00:50,15.08844319,0.0003073,53.2164,188.8215,40.0342,320.0876,0.00011932,1.611e-05,0.0,0 STARLINK-3270,1 50199U 21125AV  22338.00058820  .00001611  00000-0  11932-3 0  9994,2 50199  53.2164 188.8215 0003073  40.0342 320.0876 15.08844319 56343,6917.8669999999975,95.437,541.8580000000002,537.606,0.0
50199.0,STARLINK-3270,PAYLOAD,2022-12-04 15:54:42,15.08840192,0.0003046,53.2168,185.8477,40.1208,320.0009,9.6611e-05,1.249e-05,0.0,0 STARLINK-3270,1 50199U 21125AV  22338.66298834  .00001249  00000-0  96611-4 0  9992,2 50199  53.2168 185.8477 0003046  40.1208 320.0009 15.08840192 56923,6917.88,95.438,541.852,537.638,0.0
50199.0,STARLINK-3270,PAYLOAD,2022-12-04 23:51:38,15.08834736,0.0003045,53.2169,184.3607,40.3541,319.7676,7.2827e-05,8.7e-06,0.0,0 STARLINK-3270,1 50199U 21125AV  22338.99419345  .00000870  00000-0  72827-4 0  9992,2 50199  53.2169 184.3607 0003045  40.3541 319.7676 15.08834736 56498,6917.896,95.438,541.868,537.655,0.0
50199.0,STARLINK-3270,PAYLOAD,2022-12-05 20:31:38,15.08842449,0.0003095,53.217,180.4951,41.9034,318.2194,8.6244e-05,1.084e-05,0.0,0 STARLINK-3270,1 50199U 21125AV  22339.85530892  .00001084  00000-0  86244-4 0  9995,2 50199  53.2170 180.4951 0003095  41.9034 318.2194 15.08842449 56622,6917.873000000001,95.437,541.879,537.597,0.0
50199.0,STARLINK-3270,PAYLOAD,2022-12-06 14:00:53,15.08838937,0.0002979,53.2178,177.22400000000005,42.9291,317.1934,0.00010528,1.387e-05,0.0,0 STARLINK-3270,1 50199U 21125AV  22340.58395068  .00001387  00000-0  10528-3 0  9998,2 50199  53.2178 177.2240 0002979  42.9291 317.1934 15.08838937 57214,6917.884,95.438,541.809,537.688,0.0
50199.0,STARLINK-3270,PAYLOAD,2022-12-06 21:57:49,15.0883035,0.0003084,53.2168,175.7372,42.1145,318.0084,3.8546e-05,3.25e-06,0.0,0 STARLINK-3270,1 50199U 21125AV  22340.91515839  .00000325  00000-0  38546-4 0  9997,2 50199  53.2168 175.7372 0003084  42.1145 318.0084 15.08830350 56788,6917.91,95.438,541.908,537.641,0.0
50199.0,STARLINK-3270,PAYLOAD,2022-12-07 13:51:40,15.08837078,0.0003055,53.2172,172.7636,44.9026,315.2213,3.3032e-05,2.37e-06,0.0,0 STARLINK-3270,1 50199U 21125AV  22341.57755738  .00000237  00000-0  33032-4 0  9991,2 50199  53.2172 172.7636 0003055  44.9026 315.2213 15.08837078 57361,6917.889,95.438,541.868,537.641,0.0
50199.0,STARLINK-3270,PAYLOAD,2022-12-07 21:48:36,15.08840869,0.0003083,53.2172,171.2769,45.2302,314.894,7.0182e-05,8.29e-06,0.0,0 STARLINK-3270,1 50199U 21125AV  22341.90875546  .00000829  00000-0  70182-4 0  9992,2 50199  53.2172 171.2769 0003083  45.2302 314.8940 15.08840869 56930,6917.878000000002,95.437,541.876,537.61,0.0
50199.0,STARLINK-3270,PAYLOAD,2022-12-07 23:23:59,15.08841575,0.0003018,53.2172,170.9796,47.0875,313.0370000000001,6.9643e-05,8.2e-06,0.0,0 STARLINK-3270,1 50199U 21125AV  22341.97499513  .00000820  00000-0  69643-4 0  9996,2 50199  53.2172 170.9796 0003018  47.0875 313.0370 15.08841575 57427,6917.876,95.437,541.828,537.653,0.0
50199.0,STARLINK-3270,PAYLOAD,2022-12-08 23:14:46,15.08842681,0.0003129,53.2171,166.5193,46.2924,313.8327,0.00018085,2.591e-05,0.0,0 STARLINK-3270,1 50199U 21125AV  22342.96859284  .00002591  00000-0  18085-3 0  9991,2 50199  53.2171 166.5193 0003129  46.2924 313.8327 15.08842681 57099,6917.871999999999,95.437,541.9019999999998,537.573,0.0
50199.0,STARLINK-3270,PAYLOAD,2022-12-09 11:57:52,15.08833494,0.0003245,53.2161,164.1403,47.8477,312.279,3.1021e-05,2.05e-06,0.0,0 STARLINK-3270,1 50199U 21125AV  22343.49852088  .00000205  00000-0  31021-4 0  9991,2 50199  53.2161 164.1403 0003245  47.8477 312.2790 15.08833494 57656,6917.9,95.438,542.01,537.52,0.0
50199.0,STARLINK-3270,PAYLOAD,2022-12-09 18:19:25,15.08827347,0.0002495,53.2166,162.9514,30.1509,329.9627,0.00023563,3.463e-05,0.0,0 STARLINK-3270,1 50199U 21125AV  22343.76348384  .00003463  00000-0  23563-3 0  9990,2 50199  53.2166 162.9514 0002495  30.1509 329.9627 15.08827347 57213,6917.919,95.438,541.51,538.058,0.0
50199.0,STARLINK-3270,PAYLOAD,2022-12-10 00:40:57,15.08835369,0.0003191,53.2157,161.7612,47.8899,312.2364,3.708e-05,3.01e-06,0.0,0 STARLINK-3270,1 50199U 21125AV  22344.02844214  .00000301  00000-0  37080-4 0  9991,2 50199  53.2157 161.7612 0003191  47.8899 312.2364 15.08835369 57250,6917.895,95.438,541.967,537.552,0.0
